$$SOE
2460721.500000000, A.D. 2025-Feb-15 00:00:00.0000, -3.311903597048470E+08, -3.495833828242300E+08, -6.965093418553452E+07,
2460728.500000000, A.D. 2025-Feb-22 00:00:00.0000, -3.237067108459256E+08, -3.561733246285273E+08, -6.934567729165202E+07,
2460735.500000000, A.D. 2025-Mar-01 00:00:00.0000, -3.160863897825127E+08, -3.626129531270958E+08, -6.901114151020572E+07,
2460742.500000000, A.D. 2025-Mar-08 00:00:00.0000, -3.083323623736740E+08, -3.688992642058933E+08, -6.864741416196392E+07,
2460749.500000000, A.D. 2025-Mar-15 00:00:00.0000, -3.004476610274682E+08, -3.750293056582900E+08, -6.825459523004656E+07,
2460756.500000000, A.D. 2025-Mar-22 00:00:00.0000, -2.924353861299983E+08, -3.810001784353675E+08, -6.783279716783142E+07,
2460763.500000000, A.D. 2025-Mar-29 00:00:00.0000, -2.842987060602774E+08, -3.868090401507269E+08, -6.738214501066618E+07,
2460770.500000000, A.D. 2025-Apr-05 00:00:00.0000, -2.760408554662442E+08, -3.924531077010363E+08, -6.690277656518856E+07,
2460777.500000000, A.D. 2025-Apr-12 00:00:00.0000, -2.676651337282110E+08, -3.979296588965536E+08, -6.639484249121067E+07,
2460784.500000000, A.D. 2025-Apr-19 00:00:00.0000, -2.591749037967549E+08, -4.032360339803959E+08, -6.585850633088839E+07,
2460791.500000000, A.D. 2025-Apr-26 00:00:00.0000, -2.505735911327589E+08, -4.083696372366563E+08, -6.529394452640858E+07,
2460798.500000000, A.D. 2025-May-03 00:00:00.0000, -2.418646826348806E+08, -4.133279386652347E+08, -6.470134643470609E+07,
2460805.500000000, A.D. 2025-May-10 00:00:00.0000, -2.330517255245224E+08, -4.181084757120889E+08, -6.408091434079447E+07,
2460812.500000000, A.D. 2025-May-17 00:00:00.0000, -2.241383261501915E+08, -4.227088550939198E+08, -6.343286347623521E+07,
2460819.500000000, A.D. 2025-May-24 00:00:00.0000, -2.151281485363007E+08, -4.271267547704536E+08, -6.275742206316179E+07,
2460826.500000000, A.D. 2025-May-31 00:00:00.0000, -2.060249122583010E+08, -4.313599257524344E+08, -6.205483139691344E+07,
2460833.500000000, A.D. 2025-Jun-07 00:00:00.0000, -1.968323900453137E+08, -4.354061925392796E+08, -6.132534583210504E+07,
2460840.500000000, A.D. 2025-Jun-14 00:00:00.0000, -1.875544074748038E+08, -4.392634528511853E+08, -6.056923250959542E+07,
2460847.500000000, A.D. 2025-Jun-21 00:00:00.0000, -1.781948435420518E+08, -4.429296799252309E+08, -5.978677120317864E+07,
2460854.500000000, A.D. 2025-Jun-28 00:00:00.0000, -1.687576289763318E+08, -4.464029256100047E+08, -5.897825442878115E+07,
2460861.500000000, A.D. 2025-Jul-05 00:00:00.0000, -1.592467438212438E+08, -4.496813221011012E+08, -5.814398750076282E+07,
2460868.500000000, A.D. 2025-Jul-12 00:00:00.0000, -1.496662154707815E+08, -4.527630831207577E+08, -5.728428849164525E+07,
2460875.500000000, A.D. 2025-Jul-19 00:00:00.0000, -1.400201169719065E+08, -4.556465051142383E+08, -5.639948815932885E+07,
2460882.500000000, A.D. 2025-Jul-26 00:00:00.0000, -1.303125653838126E+08, -4.583299685170060E+08, -5.548992986535206E+07,
2460889.500000000, A.D. 2025-Aug-02 00:00:00.0000, -1.205477201284659E+08, -4.608119390687255E+08, -5.455596948815703E+07,
2460896.500000000, A.D. 2025-Aug-09 00:00:00.0000, -1.107297813091187E+08, -4.630909691867707E+08, -5.359797533449429E+07,
2460903.500000000, A.D. 2025-Aug-16 00:00:00.0000, -1.008629879203246E+08, -4.651656994606445E+08, -5.261632806096417E+07,
2460910.500000000, A.D. 2025-Aug-23 00:00:00.0000, -9.095161565756522E+07, -4.670348602489150E+08, -5.161142063087302E+07,
2460917.500000000, A.D. 2025-Aug-30 00:00:00.0000, -8.099997399843602E+07, -4.686972726625317E+08, -5.058365827783930E+07,
2460924.500000000, A.D. 2025-Sep-06 00:00:00.0000, -7.101240397442539E+07, -4.701518479316982E+08, -4.953345826385516E+07,
2460931.500000000, A.D. 2025-Sep-13 00:00:00.0000, -6.099327830449586E+07, -4.713975876360452E+08, -4.846124948098043E+07,
2460938.500000000, A.D. 2025-Sep-20 00:00:00.0000, -5.094700061729705E+07, -4.724335864402477E+08, -4.736747233100641E+07,
2460945.500000000, A.D. 2025-Sep-27 00:00:00.0000, -4.087800270416486E+07, -4.732590342224056E+08, -4.625257872579098E+07,
2460952.500000000, A.D. 2025-Oct-04 00:00:00.0000, -3.079074182092077E+07, -4.738732170544966E+08, -4.511703197905788E+07,
2460959.500000000, A.D. 2025-Oct-11 00:00:00.0000, -2.068969841349124E+07, -4.742755179758115E+08, -4.396130663225952E+07,
2460966.500000000, A.D. 2025-Oct-18 00:00:00.0000, -1.057937398502280E+07, -4.744654178313825E+08, -4.278588826281953E+07,
2460973.500000000, A.D. 2025-Oct-25 00:00:00.0000, -4.642889662422281E+05, -4.744424961618013E+08, -4.159127328662050E+07,
2460980.500000000, A.D. 2025-Nov-01 00:00:00.0000, 9.651019449281614E+06, -4.742064321263497E+08, -4.037796875719306E+07,
2460987.500000000, A.D. 2025-Nov-08 00:00:00.0000, 1.976199953852525E+07, -4.737570054886913E+08, -3.914649216759291E+07,
2460994.500000000, A.D. 2025-Nov-15 00:00:00.0000, 2.986408749767679E+07, -4.730940977220676E+08, -3.789737127364406E+07,
2461001.500000000, A.D. 2025-Nov-22 00:00:00.0000, 3.995271050713025E+07, -4.722176930125772E+08, -3.663114395782432E+07,
2461008.500000000, A.D. 2025-Nov-29 00:00:00.0000, 5.002329025756966E+07, -4.711278780241404E+08, -3.534835802725607E+07,
2461015.500000000, A.D. 2025-Dec-06 00:00:00.0000, 6.007124465745226E+07, -4.698248405590807E+08, -3.404957074822655E+07,
2461022.500000000, A.D. 2025-Dec-13 00:00:00.0000, 7.009198815366867E+07, -4.683088704819810E+08, -3.273534843263617E+07,
2461029.500000000, A.D. 2025-Dec-20 00:00:00.0000, 8.008093415700549E+07, -4.665803618820066E+08, -3.140626631342459E+07,
2461036.500000000, A.D. 2025-Dec-27 00:00:00.0000, 9.003349849627101E+07, -4.646398138814846E+08, -3.006290839888075E+07,
2461043.500000000, A.D. 2026-Jan-03 00:00:00.0000, 9.994510243877843E+07, -4.624878307043276E+08, -2.870586722226477E+07,
2461050.500000000, A.D. 2026-Jan-10 00:00:00.0000, 1.098111753839320E+08, -4.601251216799617E+08, -2.733574355216032E+07,
2461057.500000000, A.D. 2026-Jan-17 00:00:00.0000, 1.196271574600864E+08, -4.575525012704999E+08, -2.595314609231195E+07,
2461064.500000000, A.D. 2026-Jan-24 00:00:00.0000, 1.293885021010513E+08, -4.547708890949704E+08, -2.455869117636499E+07,
2461071.500000000, A.D. 2026-Jan-31 00:00:00.0000, 1.390906786247090E+08, -4.517813099555562E+08, -2.315300246059006E+07,
2461078.500000000, A.D. 2026-Feb-07 00:00:00.0000, 1.487291748742874E+08, -4.485848939221831E+08, -2.173671062531963E+07,
2461085.500000000, A.D. 2026-Feb-14 00:00:00.0000, 1.582995001737181E+08, -4.451828764908984E+08, -2.031045310987380E+07,
2461092.500000000, A.D. 2026-Feb-21 00:00:00.0000, 1.677971889820295E+08, -4.415765982395473E+08, -1.887487386950168E+07,
2461099.500000000, A.D. 2026-Feb-28 00:00:00.0000, 1.772178041583964E+08, -4.377675028272797E+08, -1.743062296058217E+07,
2461106.500000000, A.D. 2026-Mar-07 00:00:00.0000, 1.865569377753552E+08, -4.337571352864569E+08, -1.597835592464754E+07,
2461113.500000000, A.D. 2026-Mar-14 00:00:00.0000, 1.958102122527339E+08, -4.295471429374237E+08, -1.451873341658482E+07,
2461120.500000000, A.D. 2026-Mar-21 00:00:00.0000, 2.049732835930297E+08, -4.251392760271676E+08, -1.305242100390247E+07,
2461127.500000000, A.D. 2026-Mar-28 00:00:00.0000, 2.140418447065100E+08, -4.205353870632925E+08, -1.158008886885139E+07,
2461134.500000000, A.D. 2026-Apr-04 00:00:00.0000, 2.230116282195842E+08, -4.157374298089589E+08, -1.010241143706116E+07,
2461141.500000000, A.D. 2026-Apr-11 00:00:00.0000, 2.318784090375787E+08, -4.107474582986760E+08, -8.620066987341583E+06,
2461148.500000000, A.D. 2026-Apr-18 00:00:00.0000, 2.406380068184343E+08, -4.055676258816937E+08, -7.133737257919610E+06,
2461155.500000000, A.D. 2026-Apr-25 00:00:00.0000, 2.492862884003479E+08, -4.002001842783456E+08, -5.644107052256882E+06,
2461162.500000000, A.D. 2026-May-02 00:00:00.0000, 2.578191702112865E+08, -3.946474826788126E+08, -4.151863849892586E+06,
2461169.500000000, A.D. 2026-May-09 00:00:00.0000, 2.662326207826224E+08, -3.889119669502847E+08, -2.657697439434409E+06,
2461176.500000000, A.D. 2026-May-16 00:00:00.0000, 2.745226637431042E+08, -3.829961788145381E+08, -1.162299597338945E+06,
2461183.500000000, A.D. 2026-May-23 00:00:00.0000, 2.826853813433025E+08, -3.769027539750320E+08, 3.336362660830319E+05,
2461190.500000000, A.D. 2026-May-30 00:00:00.0000, 2.907169164294444E+08, -3.706344188758072E+08, 1.829415709899709E+06,
2461197.500000000, A.D. 2026-Jun-06 00:00:00.0000, 2.986134725456926E+08, -3.641939893662961E+08, 3.324343876095116E+06,
2461204.500000000, A.D. 2026-Jun-13 00:00:00.0000, 3.063713158278473E+08, -3.575843710728202E+08, 4.817725792760044E+06,
2461211.500000000, A.D. 2026-Jun-20 00:00:00.0000, 3.139867781855488E+08, -3.508085585516080E+08, 6.308866651387364E+06,
2461218.500000000, A.D. 2026-Jun-27 00:00:00.0000, 3.214562600725787E+08, -3.438696335649754E+08, 7.797072185660601E+06,
2461225.500000000, A.D. 2026-Jul-04 00:00:00.0000, 3.287762328427823E+08, -3.367707632572784E+08, 9.281649087769940E+06,
2461232.500000000, A.D. 2026-Jul-11 00:00:00.0000, 3.359432409431325E+08, -3.295151983642318E+08, 1.076190542753442E+07,
2461239.500000000, A.D. 2026-Jul-18 00:00:00.0000, 3.429539040342231E+08, -3.221062714316918E+08, 1.223715106729339E+07,
2461246.500000000, A.D. 2026-Jul-25 00:00:00.0000, 3.498049190599895E+08, -3.145473950431032E+08, 1.370669806992641E+07,
2461253.500000000, A.D. 2026-Aug-01 00:00:00.0000, 3.564930623117897E+08, -3.068420601054130E+08, 1.516986109099831E+07,
2461260.500000000, A.D. 2026-Aug-08 00:00:00.0000, 3.630151916988481E+08, -2.989938342304841E+08, 1.662595773171203E+07,
2461267.500000000, A.D. 2026-Aug-15 00:00:00.0000, 3.693682496381496E+08, -2.910063597627875E+08, 1.807430885088620E+07,
2461274.500000000, A.D. 2026-Aug-22 00:00:00.0000, 3.755492658016599E+08, -2.828833502344829E+08, 1.951423900532302E+07,
2461281.500000000, A.D. 2026-Aug-29 00:00:00.0000, 3.815553574297996E+08, -2.746285866238742E+08, 2.094507711607763E+07,
$$EOE